[{"OBJECT_NAME":"ONEWEB-0614","OBJECT_ID":"2023-004S","EPOCH":"2026-03-09T21:26:01.956480","MEAN_MOTION":13.11417775,"ECCENTRICITY":0.00017854,"INCLINATION":87.8861,"RA_OF_ASC_NODE":40.8216,"ARG_OF_PERICENTER":71.9495,"MEAN_ANOMALY":288.1828,"EPHEMERIS_TYPE":0,"CLASSIFICATION_TYPE":"U","NORAD_CAT_ID":55156,"ELEMENT_SET_NO":999,"REV_AT_EPOCH":15282,"BSTAR":0.00081478103,"MEAN_MOTION_DOT":3.01e-6,"MEAN_MOTION_DDOT":0},{"OBJECT_NAME":"COSMOS 374 DEB","OBJECT_ID":"1970-089H","EPOCH":"2026-03-09T12:27:41.883264","MEAN_MOTION":13.59474503,"ECCENTRICITY":0.06426222,"INCLINATION":62.9221,"RA_OF_ASC_NODE":68.1933,"ARG_OF_PERICENTER":199.9559,"MEAN_ANOMALY":157.5262,"EPHEMERIS_TYPE":0,"CLASSIFICATION_TYPE":"U","NORAD_CAT_ID":4621,"ELEMENT_SET_NO":999,"REV_AT_EPOCH":66798,"BSTAR":0.00036640968,"MEAN_MOTION_DOT":9.73e-6,"MEAN_MOTION_DDOT":0}]
